NORAD_CAT_ID,OBJECT_NAME,OBJECT_TYPE,EPOCH,MEAN_MOTION,ECCENTRICITY,INCLINATION,RA_OF_ASC_NODE,ARG_OF_PERICENTER,MEAN_ANOMALY,BSTAR,MEAN_MOTION_DOT,MEAN_MOTION_DDOT,TLE_LINE0,TLE_LINE1,TLE_LINE2,SEMIMAJOR_AXIS,PERIOD,APOGEE,PERIGEE,DECAYED
52477.0,STARLINK-3860,PAYLOAD,2022-11-21 16:23:04,15.08836114,0.0002398,53.2197,54.1088,25.9535,334.1577,2.8123e-05,1.59e-06,0.0,0 STARLINK-3860,1 52477U 22049AC  22325.68268971  .00000159  00000-0  28123-4 0  9998,2 52477  53.2197  54.1088 0002398  25.9535 334.1577 15.08836114 30786,6917.892,95.438,541.4159999999998,538.0980000000002,0.0
52477.0,STARLINK-3860,PAYLOAD,2022-11-22 11:27:42,15.08837891,0.0002522,53.2199,50.5405,27.0766,333.0357,3.677e-05,2.97e-06,0.0,0 STARLINK-3860,1 52477U 22049AC  22326.47757157  .00000297  00000-0  36770-4 0  9995,2 52477  53.2199  50.5405 0002522  27.0766 333.0357 15.08837891 31989,6917.887,95.438,541.497,538.007,0.0
52477.0,STARLINK-3860,PAYLOAD,2022-11-23 09:43:06,15.08849614,0.0002363,53.2196,46.3781,27.255,332.8566,-0.000183,-3.201e-05,0.0,0 STARLINK-3860,1 52477U 22049AC  22327.40493584 -.00003201  00000-0 -18300-3 0  9998,2 52477  53.2196  46.3781 0002363  27.2550 332.8566 15.08849614 32124,6917.851,95.437,541.351,538.081,0.0
52477.0,STARLINK-3860,PAYLOAD,2022-11-23 14:29:16,15.0883637,0.0002604,53.2202,45.4848,27.2083,332.9045,3.1371e-05,2.11e-06,0.0,0 STARLINK-3860,1 52477U 22049AC  22327.60365748  .00000211  00000-0  31371-4 0  9990,2 52477  53.2202  45.4848 0002604  27.2083 332.9045 15.08836370 31076,6917.891,95.438,541.558,537.955,0.0
52477.0,STARLINK-3860,PAYLOAD,2022-11-24 11:09:17,15.08831907,0.0002471,53.2198,41.6208,26.8529,333.2591,2.0612e-05,4e-07,0.0,0 STARLINK-3860,1 52477U 22049AC  22328.46478597  .00000040  00000-0  20612-4 0  9998,2 52477  53.2198  41.6208 0002471  26.8529 333.2591 15.08831907 32285,6917.905,95.438,541.48,538.061,0.0
52477.0,STARLINK-3860,PAYLOAD,2022-11-24 12:44:40,15.08835939,0.0002487,53.2198,41.3231,28.1075,332.0051,3.0463000000000013e-05,1.96e-06,0.0,0 STARLINK-3860,1 52477U 22049AC  22328.53102345  .00000196  00000-0  30463-4 0  9998,2 52477  53.2198  41.3231 0002487  28.1075 332.0051 15.08835939 32294,6917.893,95.438,541.4780000000002,538.0369999999998,0.0
52477.0,STARLINK-3860,PAYLOAD,2022-11-24 22:16:58,15.08838841,0.000262,53.2201,39.5389,28.1943,331.9191,9.556e-05,1.233e-05,0.0,0 STARLINK-3860,1 52477U 22049AC  22328.92846055  .00001233  00000-0  95560-4 0  9996,2 52477  53.2201  39.5389 0002620  28.1943 331.9191 15.08838841 31270,6917.884,95.438,541.561,537.936,0.0
52477.0,STARLINK-3860,PAYLOAD,2022-11-25 11:00:03,15.08847174,0.0002488,53.22,37.1598,29.0672,331.0459,0.0001579,2.226e-05,0.0,0 STARLINK-3860,1 52477U 22049AC  22329.45837251  .00002226  00000-0  15790-3 0  9992,2 52477  53.2200  37.1598 0002488  29.0672 331.0459 15.08847174 31352,6917.858,95.437,541.445,538.002,0.0
52477.0,STARLINK-3860,PAYLOAD,2022-11-25 23:43:09,15.08837558,0.0002566999999999,53.22,34.7809,28.0826,332.0304,0.0001209,1.636e-05,0.0,0 STARLINK-3860,1 52477U 22049AC  22329.98829974  .00001636  00000-0  12090-3 0  9997,2 52477  53.2200  34.7809 0002567  28.0826 332.0304 15.08837558 31432,6917.888000000001,95.438,541.529,537.977,0.0
52477.0,STARLINK-3860,PAYLOAD,2022-11-26 10:50:49,15.0885314,0.0002603,53.22,32.6996,29.509,330.6048,0.00019332,2.791e-05,0.0,0 STARLINK-3860,1 52477U 22049AC  22330.45196658  .00002791  00000-0  19332-3 0  9996,2 52477  53.2200  32.6996 0002603  29.5090 330.6048 15.08853140 31508,6917.84,95.437,541.506,537.905,0.0
52477.0,STARLINK-3860,PAYLOAD,2022-11-27 04:20:04,15.08846448,0.0002756,53.2195,29.4298,29.9491,330.1659,-2.515e-05,-6.89e-06,0.0,0 STARLINK-3860,1 52477U 22049AC  22331.18061332 -.00000689  00000-0 -25150-4 0  9999,2 52477  53.2195  29.4298 0002756  29.9491 330.1659 15.08846448 31616,6917.861,95.437,541.632,537.819,0.0
52477.0,STARLINK-3860,PAYLOAD,2022-11-27 10:41:38,15.08838374,0.0002744,53.2197,28.2399,30.8629,329.2524,-9.316e-05,-1.771e-05,0.0,0 STARLINK-3860,1 52477U 22049AC  22331.44557897 -.00001771  00000-0 -93160-4 0  9993,2 52477  53.2197  28.2399 0002744  30.8629 329.2524 15.08838374 31651,6917.885,95.438,541.649,537.852,0.0
52477.0,STARLINK-3860,PAYLOAD,2022-11-28 10:32:24,15.08846349,0.0002662,53.2202,23.7796,30.8302,329.2846,-2.0348e-05,-6.12e-06,0.0,0 STARLINK-3860,1 52477U 22049AC  22332.43917255 -.00000612  00000-0 -20348-4 0  9992,2 52477  53.2202  23.7796 0002662  30.8302 329.2846 15.08846349 31801,6917.861,95.437,541.568,537.884,0.0
52477.0,STARLINK-3860,PAYLOAD,2022-11-28 20:04:44,15.0883382,0.0002702,53.2203,21.9955,31.2429,328.8723,-0.00010683,-1.988e-05,0.0,0 STARLINK-3860,1 52477U 22049AC  22332.83662379 -.00001988  00000-0 -10683-3 0  9997,2 52477  53.2203  21.9955 0002702  31.2429 328.8723 15.08833820 31864,6917.899,95.438,541.633,537.895,0.0
52477.0,STARLINK-3860,PAYLOAD,2022-11-28 23:15:30,15.08828887,0.0002671,53.2198,21.4003,27.6233,332.49,2.4906e-05,1.08e-06,0.0,0 STARLINK-3860,1 52477U 22049AC  22332.96910246  .00000108  00000-0  24906-4 0  9995,2 52477  53.2198  21.4003 0002671  27.6233 332.4900 15.08828887 32960,6917.9140000000025,95.438,541.627,537.932,0.0
52477.0,STARLINK-3860,PAYLOAD,2022-11-29 08:47:48,15.08837323,0.0002659,53.2197,19.6163,29.711,330.4032,9.094e-05,1.159e-05,0.0,0 STARLINK-3860,1 52477U 22049AC  22333.36653734  .00001159  00000-0  90940-4 0  9994,2 52477  53.2197  19.6163 0002659  29.7110 330.4032 15.08837323 31944,6917.889,95.438,541.5930000000002,537.914,0.0
52477.0,STARLINK-3860,PAYLOAD,2022-11-29 23:06:17,15.08836745,0.0002771,53.2196,16.9405,29.2095,330.9051,5.0695e-05,5.18e-06,0.0,0 STARLINK-3860,1 52477U 22049AC  22333.96270304  .00000518  00000-0  50695-4 0  9999,2 52477  53.2196  16.9405 0002771  29.2095 330.9051 15.08836745 33118,6917.89,95.438,541.672,537.8380000000002,0.0
52477.0,STARLINK-3860,PAYLOAD,2022-11-30 08:38:37,15.0882836,0.0002801,53.2199,15.1568,29.2809,330.8339,-2.5648e-05,-6.97e-06,0.0,0 STARLINK-3860,1 52477U 22049AC  22334.36015258 -.00000697  00000-0 -25648-4 0  9999,2 52477  53.2199  15.1568 0002801  29.2809 330.8339 15.08828360 32097,6917.916,95.438,541.719,537.8430000000002,0.0
52477.0,STARLINK-3860,PAYLOAD,2022-11-30 10:14:00,15.08827203,0.00028,53.2199,14.8593,29.193,330.9218,-2.1779e-05,-6.35e-06,0.0,0 STARLINK-3860,1 52477U 22049AC  22334.42639364 -.00000635  00000-0 -21779-4 0  9999,2 52477  53.2199  14.8593 0002800  29.1930 330.9218 15.08827203 33187,6917.92,95.438,541.722,537.847,0.0
52477.0,STARLINK-3860,PAYLOAD,2022-12-01 11:40:09,15.08852688,0.0003003999999999,53.2195,10.1007,25.782,334.3321,-4.2153e-05,-9.6e-06,0.0,0 STARLINK-3860,1 52477U 22049AC  22335.48622279 -.00000960  00000-0 -42153-4 0  9993,2 52477  53.2195  10.1007 0003004  25.7820 334.3321 15.08852688 33345,6917.842,95.437,541.785,537.628,0.0
52477.0,STARLINK-3860,PAYLOAD,2022-12-01 19:37:05,15.08839253,0.0002894,53.2197,8.6145,27.6597,332.4548,5.1984e-05,5.39e-06,0.0,0 STARLINK-3860,1 52477U 22049AC  22335.81742829  .00000539  00000-0  51984-4 0  9996,2 52477  53.2197   8.6145 0002894  27.6597 332.4548 15.08839253 32319,6917.8830000000025,95.438,541.75,537.746,0.0
52477.0,STARLINK-3860,PAYLOAD,2022-12-02 08:20:10,15.08843385,0.0002711,53.2198,6.2339,27.3038,332.8096,0.00016736,2.376e-05,0.0,0 STARLINK-3860,1 52477U 22049AC  22336.34734183  .00002376  00000-0  16736-3 0  9995,2 52477  53.2198   6.2339 0002711  27.3038 332.8096 15.08843385 33475,6917.87,95.437,541.61,537.86,0.0
52477.0,STARLINK-3860,PAYLOAD,2022-12-02 19:27:52,15.08839238,0.0002786,53.2197,4.1532,27.7548,332.3592,8.4323e-05,1.054e-05,0.0,0 STARLINK-3860,1 52477U 22049AC  22336.81102713  .00001054  00000-0  84323-4 0  9995,2 52477  53.2197   4.1532 0002786  27.7548 332.3592 15.08839238 33544,6917.8830000000025,95.438,541.675,537.82,0.0
52477.0,STARLINK-3860,PAYLOAD,2022-12-02 22:38:38,15.088447899999998,0.0002502,53.2205,3.5594,30.5479,329.5659,4.7581e-05,4.69e-06,0.0,0 STARLINK-3860,1 52477U 22049AC  22336.94350459  .00000469  00000-0  47581-4 0  9995,2 52477  53.2205   3.5594 0002502  30.5479 329.5659 15.08844790 32489,6917.866,95.437,541.462,538.0,0.0
52477.0,STARLINK-3860,PAYLOAD,2022-12-03 12:57:07,15.08844142,0.000322,53.2209,0.8853,26.7552,333.3606,2.7235e-05,1.45e-06,0.0,0 STARLINK-3860,1 52477U 22049AC  22337.53966581  .00000145  00000-0  27235-4 0  9995,2 52477  53.2209   0.8853 0003220  26.7552 333.3606 15.08844142 33654,6917.868,95.437,541.96,537.505,0.0
52477.0,STARLINK-3860,PAYLOAD,2022-12-03 19:18:40,15.08833245,0.0002797,53.2192,359.6931,29.5553,330.5597,-1.4588e-05,-5.21e-06,0.0,0 STARLINK-3860,1 52477U 22049AC  22337.80463411 -.00000521  00000-0 -14588-4 0  9996,2 52477  53.2192 359.6931 0002797  29.5553 330.5597 15.08833245 32612,6917.901,95.438,541.701,537.831,0.0
52477.0,STARLINK-3860,PAYLOAD,2022-12-04 08:01:44,15.08843052,0.0003005,53.2187,357.3157,29.4604,330.6557,5.222e-07,-2.8e-06,0.0,0 STARLINK-3860,1 52477U 22049AC  22338.33454857 -.00000280  00000-0  52220-6 0  9997,2 52477  53.2187 357.3157 0003005  29.4604 330.6557 15.08843052 32692,6917.871,95.437,541.815,537.6569999999998,0.0
52477.0,STARLINK-3860,PAYLOAD,2022-12-04 12:47:54,15.08846134,0.0002979,53.2196,356.4233,28.3201,331.7953,7.3996e-05,8.89e-06,0.0,0 STARLINK-3860,1 52477U 22049AC  22338.53326424  .00000889  00000-0  73996-4 0  9992,2 52477  53.2196 356.4233 0002979  28.3201 331.7953 15.08846134 33807,6917.861999999999,95.437,541.7869999999998,537.6659999999998,0.0
52477.0,STARLINK-3860,PAYLOAD,2022-12-05 01:30:58,15.08848686,0.0003052,53.2195,354.0448,29.0093,331.1068,0.00010945,1.454e-05,0.0,0 STARLINK-3860,1 52477U 22049AC  22339.06318093  .00001454  00000-0  10945-3 0  9997,2 52477  53.2195 354.0448 0003052  29.0093 331.1068 15.08848686 32802,6917.854,95.437,541.83,537.6080000000002,0.0
